{
    "links": {
        "self": "http://www.neowsapp.com/rest/v1/neo/3699885?api_key=iIulBulltgU6a56xZRHN4H3l9WmuAYTsLGpBGhQ2"
    },
    "id": "3699885",
    "neo_reference_id": "3699885",
    "name": "(2014 WR365)",
    "designation": "2014 WR365",
    "nasa_jpl_url": "http://ssd.jpl.nasa.gov/sbdb.cgi?sstr=3699885",
    "absolute_magnitude_h": 22.9,
    "estimated_diameter": {
        "kilometers": {
            "estimated_diameter_min": 0.0699125232,
            "estimated_diameter_max": 0.1563291544
        },
        "meters": {
            "estimated_diameter_min": 69.9125232246,
            "estimated_diameter_max": 156.3291544087
        },
        "miles": {
            "estimated_diameter_min": 0.0434416145,
            "estimated_diameter_max": 0.097138403
        },
        "feet": {
            "estimated_diameter_min": 229.3718026961,
            "estimated_diameter_max": 512.8909429502
        }
    },
    "is_potentially_hazardous_asteroid": false,
    "close_approach_data": [
        {
            "close_approach_date": "2014-11-19",
            "close_approach_date_full": "2014-Nov-19 00:34",
            "epoch_date_close_approach": 1416357240000,
            "relative_velocity": {
                "kilometers_per_second": "4.4092875139",
                "kilometers_per_hour": "15873.4350500076",
                "miles_per_hour": "9863.1352398228"
            },
            "miss_distance": {
                "astronomical": "0.1923615803",
                "lunar": "74.8286547367",
                "kilometers": "28776882.682713961",
                "miles": "17881125.7402202218"
            },
            "orbiting_body": "Earth"
        }
    ],
    "orbital_data": {
        "orbit_id": "5",
        "orbit_determination_date": "2017-04-06 08:37:04",
        "first_observation_date": "2014-11-25",
        "last_observation_date": "2014-12-28",
        "data_arc_in_days": 33,
        "observations_used": 33,
        "orbit_uncertainty": "6",
        "minimum_orbit_intersection": ".185985",
        "jupiter_tisserand_invariant": "3.095",
        "epoch_osculation": "2459000.5",
        "eccentricity": ".5718040892293258",
        "semi_major_axis": "2.725898975855367",
        "inclination": "3.121052965317541",
        "ascending_node_longitude": "2.091294246020156",
        "orbital_period": "1643.853314207731",
        "perihelion_distance": "1.167218794635237",
        "perihelion_argument": "57.01691898528981",
        "aphelion_distance": "4.284579157075497",
        "perihelion_time": "2458628.605681758055",
        "mean_anomaly": "81.44397885746018",
        "mean_motion": ".218997642240059",
        "equinox": "J2000",
        "orbit_class": {
            "orbit_class_type": "AMO",
            "orbit_class_description": "Near-Earth asteroid orbits similar to that of 1221 Amor",
            "orbit_class_range": "1.017 AU < q (perihelion) < 1.3 AU"
        }
    },
    "is_sentry_object": false
}